[{"OBJECT_NAME":"STARLINK-36136","OBJECT_ID":"2025-288J","EPOCH":"2026-03-09T22:05:54.793248","MEAN_MOTION":15.27584821,"ECCENTRICITY":0.00013373,"INCLINATION":43.0033,"RA_OF_ASC_NODE":22.0707,"ARG_OF_PERICENTER":242.9607,"MEAN_ANOMALY":117.1108,"EPHEMERIS_TYPE":0,"CLASSIFICATION_TYPE":"U","NORAD_CAT_ID":66967,"ELEMENT_SET_NO":999,"REV_AT_EPOCH":1532,"BSTAR":0.001275511,"MEAN_MOTION_DOT":0.00035009,"MEAN_MOTION_DDOT":0},{"OBJECT_NAME":"OBJECT N","OBJECT_ID":"2019-093N","EPOCH":"2026-03-09T21:41:56.087232","MEAN_MOTION":15.29897693,"ECCENTRICITY":0.0006278,"INCLINATION":98.0505,"RA_OF_ASC_NODE":226.9456,"ARG_OF_PERICENTER":33.3806,"MEAN_ANOMALY":326.7828,"EPHEMERIS_TYPE":0,"CLASSIFICATION_TYPE":"U","NORAD_CAT_ID":44891,"ELEMENT_SET_NO":999,"REV_AT_EPOCH":33957,"BSTAR":0.0010567776,"MEAN_MOTION_DOT":0.00030617,"MEAN_MOTION_DDOT":0}]
